{
  "type": "FeatureCollection",
  "features": [
    {
      "type": "Feature",
      "geometry": {
        "type": "Point",
        "coordinates": [
          8.63169,
          47.13443,
          9.9
        ]
      },
      "properties": {
        "pressure": 913.424,
        "temp": 290.22,
        "dewpoint": 281.93,
        "gpheight": 9.9,
        "time": 1789297200,
        "flags": 0,
        "windSpeedKn": 3.3,
        "windSpeedMs": 1.7,
        "windDirDeg": 266.6
      }
    },
    {
      "type": "Feature",
      "geometry": {
        "type": "Point",
        "coordinates": [
          8.63169,
          47.13443,
          34.3
        ]
      },
      "properties": {
        "pressure": 910.806,
        "temp": 289.82,
        "dewpoint": 281.58,
        "gpheight": 34.3,
        "time": 1789297200,
        "flags": 0,
        "windSpeedKn": 3.5,
        "windSpeedMs": 1.8,
        "windDirDeg": 266.4
      }
    },
    {
      "type": "Feature",
      "geometry": {
        "type": "Point",
        "coordinates": [
          8.63169,
          47.13443,
          67.9
        ]
      },
      "properties": {
        "pressure": 907.2,
        "temp": 289.43,
        "dewpoint": 281.38,
        "gpheight": 67.9,
        "time": 1789297200,
        "flags": 0,
        "windSpeedKn": 3.6,
        "windSpeedMs": 1.85,
        "windDirDeg": 266.3
      }
    },
    {
      "type": "Feature",
      "geometry": {
        "type": "Point",
        "coordinates": [
          8.63169,
          47.13443,
          109.4
        ]
      },
      "properties": {
        "pressure": 902.757,
        "temp": 288.98,
        "dewpoint": 281.22,
        "gpheight": 109.4,
        "time": 1789297200,
        "flags": 0,
        "windSpeedKn": 3.5,
        "windSpeedMs": 1.8,
        "windDirDeg": 266.0
      }
    },
    {
      "type": "Feature",
      "geometry": {
        "type": "Point",
        "coordinates": [
          8.63169,
          47.13443,
          156.8
        ]
      },
      "properties": {
        "pressure": 897.712,
        "temp": 288.49,
        "dewpoint": 281.07,
        "gpheight": 156.8,
        "time": 1789297200,
        "flags": 0,
        "windSpeedKn": 3.5,
        "windSpeedMs": 1.8,
        "windDirDeg": 265.5
      }
    },
    {
      "type": "Feature",
      "geometry": {
        "type": "Point",
        "coordinates": [
          8.63169,
          47.13443,
          209.1
        ]
      },
      "properties": {
        "pressure": 892.152,
        "temp": 287.96,
        "dewpoint": 280.93,
        "gpheight": 209.1,
        "time": 1789297200,
        "flags": 0,
        "windSpeedKn": 3.4,
        "windSpeedMs": 1.75,
        "windDirDeg": 264.9
      }
    },
    {
      "type": "Feature",
      "geometry": {
        "type": "Point",
        "coordinates": [
          8.63169,
          47.13443,
          266.3
        ]
      },
      "properties": {
        "pressure": 886.111,
        "temp": 287.39,
        "dewpoint": 280.78,
        "gpheight": 266.3,
        "time": 1789297200,
        "flags": 0,
        "windSpeedKn": 3.3,
        "windSpeedMs": 1.7,
        "windDirDeg": 264.0
      }
    },
    {
      "type": "Feature",
      "geometry": {
        "type": "Point",
        "coordinates": [
          8.63169,
          47.13443,
          327.9
        ]
      },
      "properties": {
        "pressure": 879.631,
        "temp": 286.79,
        "dewpoint": 280.6,
        "gpheight": 327.9,
        "time": 1789297200,
        "flags": 0,
        "windSpeedKn": 3.2,
        "windSpeedMs": 1.65,
        "windDirDeg": 262.1
      }
    },
    {
      "type": "Feature",
      "geometry": {
        "type": "Point",
        "coordinates": [
          8.63169,
          47.13443,
          393.8
        ]
      },
      "properties": {
        "pressure": 872.739,
        "temp": 286.37,
        "dewpoint": 280.2,
        "gpheight": 393.8,
        "time": 1789297200,
        "flags": 0,
        "windSpeedKn": 3.1,
        "windSpeedMs": 1.59,
        "windDirDeg": 233.2
      }
    },
    {
      "type": "Feature",
      "geometry": {
        "type": "Point",
        "coordinates": [
          8.63169,
          47.13443,
          464.0
        ]
      },
      "properties": {
        "pressure": 865.452,
        "temp": 286.02,
        "dewpoint": 280.29,
        "gpheight": 464.0,
        "time": 1789297200,
        "flags": 0,
        "windSpeedKn": 3.9,
        "windSpeedMs": 2.01,
        "windDirDeg": 213.2
      }
    },
    {
      "type": "Feature",
      "geometry": {
        "type": "Point",
        "coordinates": [
          8.63169,
          47.13443,
          538.3
        ]
      },
      "properties": {
        "pressure": 857.794,
        "temp": 285.55,
        "dewpoint": 278.99,
        "gpheight": 538.3,
        "time": 1789297200,
        "flags": 0,
        "windSpeedKn": 4.3,
        "windSpeedMs": 2.21,
        "windDirDeg": 220.6
      }
    },
    {
      "type": "Feature",
      "geometry": {
        "type": "Point",
        "coordinates": [
          8.63169,
          47.13443,
          616.9
        ]
      },
      "properties": {
        "pressure": 849.766,
        "temp": 285.45,
        "dewpoint": 276.18,
        "gpheight": 616.9,
        "time": 1789297200,
        "flags": 0,
        "windSpeedKn": 4.0,
        "windSpeedMs": 2.06,
        "windDirDeg": 225.0
      }
    },
    {
      "type": "Feature",
      "geometry": {
        "type": "Point",
        "coordinates": [
          8.63169,
          47.13443,
          699.6
        ]
      },
      "properties": {
        "pressure": 841.39,
        "temp": 285.25,
        "dewpoint": 273.04,
        "gpheight": 699.6,
        "time": 1789297200,
        "flags": 0,
        "windSpeedKn": 3.7,
        "windSpeedMs": 1.9,
        "windDirDeg": 237.8
      }
    },
    {
      "type": "Feature",
      "geometry": {
        "type": "Point",
        "coordinates": [
          8.63169,
          47.13443,
          786.6
        ]
      },
      "properties": {
        "pressure": 832.656,
        "temp": 284.74,
        "dewpoint": 272.14,
        "gpheight": 786.6,
        "time": 1789297200,
        "flags": 0,
        "windSpeedKn": 3.5,
        "windSpeedMs": 1.8,
        "windDirDeg": 250.1
      }
    },
    {
      "type": "Feature",
      "geometry": {
        "type": "Point",
        "coordinates": [
          8.63169,
          47.13443,
          877.8
        ]
      },
      "properties": {
        "pressure": 823.573,
        "temp": 284.26,
        "dewpoint": 271.75,
        "gpheight": 877.8,
        "time": 1789297200,
        "flags": 0,
        "windSpeedKn": 4.0,
        "windSpeedMs": 2.06,
        "windDirDeg": 268.0
      }
    },
    {
      "type": "Feature",
      "geometry": {
        "type": "Point",
        "coordinates": [
          8.63169,
          47.13443,
          973.5
        ]
      },
      "properties": {
        "pressure": 814.146,
        "temp": 283.91,
        "dewpoint": 269.83,
        "gpheight": 973.5,
        "time": 1789297200,
        "flags": 0,
        "windSpeedKn": 4.7,
        "windSpeedMs": 2.42,
        "windDirDeg": 282.3
      }
    },
    {
      "type": "Feature",
      "geometry": {
        "type": "Point",
        "coordinates": [
          8.63169,
          47.13443,
          1073.7
        ]
      },
      "properties": {
        "pressure": 804.383,
        "temp": 283.78,
        "dewpoint": 265.1,
        "gpheight": 1073.7,
        "time": 1789297200,
        "flags": 0,
        "windSpeedKn": 5.3,
        "windSpeedMs": 2.73,
        "windDirDeg": 294.0
      }
    },
    {
      "type": "Feature",
      "geometry": {
        "type": "Point",
        "coordinates": [
          8.63169,
          47.13443,
          1178.6
        ]
      },
      "properties": {
        "pressure": 794.284,
        "temp": 283.58,
        "dewpoint": 260.62,
        "gpheight": 1178.6,
        "time": 1789297200,
        "flags": 0,
        "windSpeedKn": 5.8,
        "windSpeedMs": 2.98,
        "windDirDeg": 306.1
      }
    },
    {
      "type": "Feature",
      "geometry": {
        "type": "Point",
        "coordinates": [
          8.63169,
          47.13443,
          1288.2
        ]
      },
      "properties": {
        "pressure": 783.852,
        "temp": 283.17,
        "dewpoint": 258.42,
        "gpheight": 1288.2,
        "time": 1789297200,
        "flags": 0,
        "windSpeedKn": 6.3,
        "windSpeedMs": 3.24,
        "windDirDeg": 318.3
      }
    },
    {
      "type": "Feature",
      "geometry": {
        "type": "Point",
        "coordinates": [
          8.63169,
          47.13443,
          1402.6
        ]
      },
      "properties": {
        "pressure": 773.086,
        "temp": 282.59,
        "dewpoint": 258.06,
        "gpheight": 1402.6,
        "time": 1789297200,
        "flags": 0,
        "windSpeedKn": 7.2,
        "windSpeedMs": 3.7,
        "windDirDeg": 331.3
      }
    },
    {
      "type": "Feature",
      "geometry": {
        "type": "Point",
        "coordinates": [
          8.63169,
          47.13443,
          1521.9
        ]
      },
      "properties": {
        "pressure": 761.983,
        "temp": 281.82,
        "dewpoint": 261.21,
        "gpheight": 1521.9,
        "time": 1789297200,
        "flags": 0,
        "windSpeedKn": 8.2,
        "windSpeedMs": 4.22,
        "windDirDeg": 339.8
      }
    },
    {
      "type": "Feature",
      "geometry": {
        "type": "Point",
        "coordinates": [
          8.63169,
          47.13443,
          1646.4
        ]
      },
      "properties": {
        "pressure": 750.531,
        "temp": 280.76,
        "dewpoint": 266.28,
        "gpheight": 1646.4,
        "time": 1789297200,
        "flags": 0,
        "windSpeedKn": 8.3,
        "windSpeedMs": 4.27,
        "windDirDeg": 345.5
      }
    },
    {
      "type": "Feature",
      "geometry": {
        "type": "Point",
        "coordinates": [
          8.63169,
          47.13443,
          1776.2
        ]
      },
      "properties": {
        "pressure": 738.738,
        "temp": 280.09,
        "dewpoint": 269.11,
        "gpheight": 1776.2,
        "time": 1789297200,
        "flags": 0,
        "windSpeedKn": 8.1,
        "windSpeedMs": 4.17,
        "windDirDeg": 350.3
      }
    },
    {
      "type": "Feature",
      "geometry": {
        "type": "Point",
        "coordinates": [
          8.63169,
          47.13443,
          1911.5
        ]
      },
      "properties": {
        "pressure": 726.622,
        "temp": 279.45,
        "dewpoint": 269.66,
        "gpheight": 1911.5,
        "time": 1789297200,
        "flags": 0,
        "windSpeedKn": 8.1,
        "windSpeedMs": 4.17,
        "windDirDeg": 344.8
      }
    },
    {
      "type": "Feature",
      "geometry": {
        "type": "Point",
        "coordinates": [
          8.63169,
          47.13443,
          2052.5
        ]
      },
      "properties": {
        "pressure": 714.174,
        "temp": 278.77,
        "dewpoint": 269.99,
        "gpheight": 2052.5,
        "time": 1789297200,
        "flags": 0,
        "windSpeedKn": 9.2,
        "windSpeedMs": 4.73,
        "windDirDeg": 338.4
      }
    },
    {
      "type": "Feature",
      "geometry": {
        "type": "Point",
        "coordinates": [
          8.63169,
          47.13443,
          2199.5
        ]
      },
      "properties": {
        "pressure": 701.396,
        "temp": 278.18,
        "dewpoint": 270.56,
        "gpheight": 2199.5,
        "time": 1789297200,
        "flags": 0,
        "windSpeedKn": 10.3,
        "windSpeedMs": 5.3,
        "windDirDeg": 332.0
      }
    },
    {
      "type": "Feature",
      "geometry": {
        "type": "Point",
        "coordinates": [
          8.63169,
          47.13443,
          2352.5
        ]
      },
      "properties": {
        "pressure": 688.307,
        "temp": 277.36,
        "dewpoint": 272.54,
        "gpheight": 2352.5,
        "time": 1789297200,
        "flags": 0,
        "windSpeedKn": 11.4,
        "windSpeedMs": 5.86,
        "windDirDeg": 326.1
      }
    },
    {
      "type": "Feature",
      "geometry": {
        "type": "Point",
        "coordinates": [
          8.63169,
          47.13443,
          2511.8
        ]
      },
      "properties": {
        "pressure": 674.886,
        "temp": 276.36,
        "dewpoint": 273.11,
        "gpheight": 2511.8,
        "time": 1789297200,
        "flags": 0,
        "windSpeedKn": 11.9,
        "windSpeedMs": 6.12,
        "windDirDeg": 322.4
      }
    },
    {
      "type": "Feature",
      "geometry": {
        "type": "Point",
        "coordinates": [
          8.63169,
          47.13443,
          2677.7
        ]
      },
      "properties": {
        "pressure": 661.146,
        "temp": 275.6,
        "dewpoint": 271.49,
        "gpheight": 2677.7,
        "time": 1789297200,
        "flags": 0,
        "windSpeedKn": 13.4,
        "windSpeedMs": 6.89,
        "windDirDeg": 317.2
      }
    },
    {
      "type": "Feature",
      "geometry": {
        "type": "Point",
        "coordinates": [
          8.63169,
          47.13443,
          2850.5
        ]
      },
      "properties": {
        "pressure": 647.089,
        "temp": 274.75,
        "dewpoint": 269.41,
        "gpheight": 2850.5,
        "time": 1789297200,
        "flags": 0,
        "windSpeedKn": 15.1,
        "windSpeedMs": 7.77,
        "windDirDeg": 314.5
      }
    },
    {
      "type": "Feature",
      "geometry": {
        "type": "Point",
        "coordinates": [
          8.63169,
          47.13443,
          3030.5
        ]
      },
      "properties": {
        "pressure": 632.716,
        "temp": 273.69,
        "dewpoint": 268.2,
        "gpheight": 3030.5,
        "time": 1789297200,
        "flags": 0,
        "windSpeedKn": 15.4,
        "windSpeedMs": 7.92,
        "windDirDeg": 310.2
      }
    },
    {
      "type": "Feature",
      "geometry": {
        "type": "Point",
        "coordinates": [
          8.63169,
          47.13443,
          3217.7
        ]
      },
      "properties": {
        "pressure": 618.03,
        "temp": 272.39,
        "dewpoint": 267.67,
        "gpheight": 3217.7,
        "time": 1789297200,
        "flags": 0,
        "windSpeedKn": 17.7,
        "windSpeedMs": 9.11,
        "windDirDeg": 312.3
      }
    },
    {
      "type": "Feature",
      "geometry": {
        "type": "Point",
        "coordinates": [
          8.63169,
          47.13443,
          3412.6
        ]
      },
      "properties": {
        "pressure": 603.021,
        "temp": 270.75,
        "dewpoint": 267.15,
        "gpheight": 3412.6,
        "time": 1789297200,
        "flags": 0,
        "windSpeedKn": 18.7,
        "windSpeedMs": 9.62,
        "windDirDeg": 315.9
      }
    },
    {
      "type": "Feature",
      "geometry": {
        "type": "Point",
        "coordinates": [
          8.63169,
          47.13443,
          3615.4
        ]
      },
      "properties": {
        "pressure": 587.699,
        "temp": 269.17,
        "dewpoint": 265.86,
        "gpheight": 3615.4,
        "time": 1789297200,
        "flags": 0,
        "windSpeedKn": 20.6,
        "windSpeedMs": 10.6,
        "windDirDeg": 317.8
      }
    },
    {
      "type": "Feature",
      "geometry": {
        "type": "Point",
        "coordinates": [
          8.63169,
          47.13443,
          3826.6
        ]
      },
      "properties": {
        "pressure": 572.062,
        "temp": 267.54,
        "dewpoint": 260.9,
        "gpheight": 3826.6,
        "time": 1789297200,
        "flags": 0,
        "windSpeedKn": 22.7,
        "windSpeedMs": 11.68,
        "windDirDeg": 320.9
      }
    },
    {
      "type": "Feature",
      "geometry": {
        "type": "Point",
        "coordinates": [
          8.63169,
          47.13443,
          4046.4
        ]
      },
      "properties": {
        "pressure": 556.123,
        "temp": 265.72,
        "dewpoint": 258.15,
        "gpheight": 4046.4,
        "time": 1789297200,
        "flags": 0,
        "windSpeedKn": 24.4,
        "windSpeedMs": 12.55,
        "windDirDeg": 321.6
      }
    },
    {
      "type": "Feature",
      "geometry": {
        "type": "Point",
        "coordinates": [
          8.63169,
          47.13443,
          4275.2
        ]
      },
      "properties": {
        "pressure": 539.889,
        "temp": 263.83,
        "dewpoint": 256.24,
        "gpheight": 4275.2,
        "time": 1789297200,
        "flags": 0,
        "windSpeedKn": 23.4,
        "windSpeedMs": 12.04,
        "windDirDeg": 316.3
      }
    },
    {
      "type": "Feature",
      "geometry": {
        "type": "Point",
        "coordinates": [
          8.63169,
          47.13443,
          4513.4
        ]
      },
      "properties": {
        "pressure": 523.384,
        "temp": 262.2,
        "dewpoint": 252.65,
        "gpheight": 4513.4,
        "time": 1789297200,
        "flags": 0,
        "windSpeedKn": 22.5,
        "windSpeedMs": 11.57,
        "windDirDeg": 312.4
      }
    },
    {
      "type": "Feature",
      "geometry": {
        "type": "Point",
        "coordinates": [
          8.63169,
          47.13443,
          4761.9
        ]
      },
      "properties": {
        "pressure": 506.65,
        "temp": 261.19,
        "dewpoint": 245.66,
        "gpheight": 4761.9,
        "time": 1789297200,
        "flags": 0,
        "windSpeedKn": 22.2,
        "windSpeedMs": 11.42,
        "windDirDeg": 308.9
      }
    },
    {
      "type": "Feature",
      "geometry": {
        "type": "Point",
        "coordinates": [
          8.63169,
          47.13443,
          5020.6
        ]
      },
      "properties": {
        "pressure": 489.73,
        "temp": 260.19,
        "dewpoint": 242.88,
        "gpheight": 5020.6,
        "time": 1789297200,
        "flags": 0,
        "windSpeedKn": 25.9,
        "windSpeedMs": 13.32,
        "windDirDeg": 303.9
      }
    },
    {
      "type": "Feature",
      "geometry": {
        "type": "Point",
        "coordinates": [
          8.63169,
          47.13443,
          5289.6
        ]
      },
      "properties": {
        "pressure": 472.621,
        "temp": 258.45,
        "dewpoint": 240.35,
        "gpheight": 5289.6,
        "time": 1789297200,
        "flags": 0,
        "windSpeedKn": 25.5,
        "windSpeedMs": 13.12,
        "windDirDeg": 306.0
      }
    },
    {
      "type": "Feature",
      "geometry": {
        "type": "Point",
        "coordinates": [
          8.63169,
          47.13443,
          5570.2
        ]
      },
      "properties": {
        "pressure": 455.345,
        "temp": 257.38,
        "dewpoint": 238.42,
        "gpheight": 5570.2,
        "time": 1789297200,
        "flags": 0,
        "windSpeedKn": 23.6,
        "windSpeedMs": 12.14,
        "windDirDeg": 303.9
      }
    },
    {
      "type": "Feature",
      "geometry": {
        "type": "Point",
        "coordinates": [
          8.63169,
          47.13443,
          5862.1
        ]
      },
      "properties": {
        "pressure": 437.92,
        "temp": 255.56,
        "dewpoint": 237.23,
        "gpheight": 5862.1,
        "time": 1789297200,
        "flags": 0,
        "windSpeedKn": 23.7,
        "windSpeedMs": 12.19,
        "windDirDeg": 301.4
      }
    },
    {
      "type": "Feature",
      "geometry": {
        "type": "Point",
        "coordinates": [
          8.63169,
          47.13443,
          6166.1
        ]
      },
      "properties": {
        "pressure": 420.333,
        "temp": 253.38,
        "dewpoint": 237.18,
        "gpheight": 6166.1,
        "time": 1789297200,
        "flags": 0,
        "windSpeedKn": 23.1,
        "windSpeedMs": 11.88,
        "windDirDeg": 302.7
      }
    },
    {
      "type": "Feature",
      "geometry": {
        "type": "Point",
        "coordinates": [
          8.63169,
          47.13443,
          6483.3
        ]
      },
      "properties": {
        "pressure": 402.611,
        "temp": 251.57,
        "dewpoint": 239.4,
        "gpheight": 6483.3,
        "time": 1789297200,
        "flags": 0,
        "windSpeedKn": 23.8,
        "windSpeedMs": 12.24,
        "windDirDeg": 304.3
      }
    },
    {
      "type": "Feature",
      "geometry": {
        "type": "Point",
        "coordinates": [
          8.63169,
          47.13443,
          6813.7
        ]
      },
      "properties": {
        "pressure": 384.764,
        "temp": 248.93,
        "dewpoint": 240.89,
        "gpheight": 6813.7,
        "time": 1789297200,
        "flags": 0,
        "windSpeedKn": 25.0,
        "windSpeedMs": 12.86,
        "windDirDeg": 304.3
      }
    },
    {
      "type": "Feature",
      "geometry": {
        "type": "Point",
        "coordinates": [
          8.63169,
          47.13443,
          7158.4
        ]
      },
      "properties": {
        "pressure": 366.782,
        "temp": 246.07,
        "dewpoint": 239.3,
        "gpheight": 7158.4,
        "time": 1789297200,
        "flags": 0,
        "windSpeedKn": 25.8,
        "windSpeedMs": 13.27,
        "windDirDeg": 304.9
      }
    },
    {
      "type": "Feature",
      "geometry": {
        "type": "Point",
        "coordinates": [
          8.63169,
          47.13443,
          7518.6
        ]
      },
      "properties": {
        "pressure": 348.683,
        "temp": 243.18,
        "dewpoint": 237.52,
        "gpheight": 7518.6,
        "time": 1789297200,
        "flags": 0,
        "windSpeedKn": 25.3,
        "windSpeedMs": 13.02,
        "windDirDeg": 310.4
      }
    },
    {
      "type": "Feature",
      "geometry": {
        "type": "Point",
        "coordinates": [
          8.63169,
          47.13443,
          7895.4
        ]
      },
      "properties": {
        "pressure": 330.5,
        "temp": 240.33,
        "dewpoint": 232.48,
        "gpheight": 7895.4,
        "time": 1789297200,
        "flags": 0,
        "windSpeedKn": 29.6,
        "windSpeedMs": 15.23,
        "windDirDeg": 313.1
      }
    },
    {
      "type": "Feature",
      "geometry": {
        "type": "Point",
        "coordinates": [
          8.63169,
          47.13443,
          8289.6
        ]
      },
      "properties": {
        "pressure": 312.248,
        "temp": 237.03,
        "dewpoint": 231.63,
        "gpheight": 8289.6,
        "time": 1789297200,
        "flags": 0,
        "windSpeedKn": 32.6,
        "windSpeedMs": 16.77,
        "windDirDeg": 315.2
      }
    },
    {
      "type": "Feature",
      "geometry": {
        "type": "Point",
        "coordinates": [
          8.63169,
          47.13443,
          8702.7
        ]
      },
      "properties": {
        "pressure": 293.94,
        "temp": 233.58,
        "dewpoint": 229.97,
        "gpheight": 8702.7,
        "time": 1789297200,
        "flags": 0,
        "windSpeedKn": 34.5,
        "windSpeedMs": 17.75,
        "windDirDeg": 316.4
      }
    },
    {
      "type": "Feature",
      "geometry": {
        "type": "Point",
        "coordinates": [
          8.63169,
          47.13443,
          9136.5
        ]
      },
      "properties": {
        "pressure": 275.609,
        "temp": 230.18,
        "dewpoint": 226.46,
        "gpheight": 9136.5,
        "time": 1789297200,
        "flags": 0,
        "windSpeedKn": 34.2,
        "windSpeedMs": 17.59,
        "windDirDeg": 318.8
      }
    },
    {
      "type": "Feature",
      "geometry": {
        "type": "Point",
        "coordinates": [
          8.63169,
          47.13443,
          9592.4
        ]
      },
      "properties": {
        "pressure": 257.271,
        "temp": 226.21,
        "dewpoint": 222.36,
        "gpheight": 9592.4,
        "time": 1789297200,
        "flags": 0,
        "windSpeedKn": 34.1,
        "windSpeedMs": 17.54,
        "windDirDeg": 312.6
      }
    },
    {
      "type": "Feature",
      "geometry": {
        "type": "Point",
        "coordinates": [
          8.63169,
          47.13443,
          10072.6
        ]
      },
      "properties": {
        "pressure": 238.925,
        "temp": 221.73,
        "dewpoint": 217.72,
        "gpheight": 10072.6,
        "time": 1789297200,
        "flags": 0,
        "windSpeedKn": 37.1,
        "windSpeedMs": 19.09,
        "windDirDeg": 319.4
      }
    },
    {
      "type": "Feature",
      "geometry": {
        "type": "Point",
        "coordinates": [
          8.63169,
          47.13443,
          10580.6
        ]
      },
      "properties": {
        "pressure": 220.608,
        "temp": 217.59,
        "dewpoint": 213.49,
        "gpheight": 10580.6,
        "time": 1789297200,
        "flags": 0,
        "windSpeedKn": 40.8,
        "windSpeedMs": 20.99,
        "windDirDeg": 323.8
      }
    },
    {
      "type": "Feature",
      "geometry": {
        "type": "Point",
        "coordinates": [
          8.63169,
          47.13443,
          11119.5
        ]
      },
      "properties": {
        "pressure": 202.381,
        "temp": 213.46,
        "dewpoint": 209.27,
        "gpheight": 11119.5,
        "time": 1789297200,
        "flags": 0,
        "windSpeedKn": 39.8,
        "windSpeedMs": 20.47,
        "windDirDeg": 330.0
      }
    },
    {
      "type": "Feature",
      "geometry": {
        "type": "Point",
        "coordinates": [
          8.63169,
          47.13443,
          11697.2
        ]
      },
      "properties": {
        "pressure": 184.414,
        "temp": 212.3,
        "dewpoint": 206.85,
        "gpheight": 11697.2,
        "time": 1789297200,
        "flags": 0,
        "windSpeedKn": 37.3,
        "windSpeedMs": 19.19,
        "windDirDeg": 323.2
      }
    },
    {
      "type": "Feature",
      "geometry": {
        "type": "Point",
        "coordinates": [
          8.63169,
          47.13443,
          12320.0
        ]
      },
      "properties": {
        "pressure": 166.977,
        "temp": 214.21,
        "dewpoint": 201.5,
        "gpheight": 12320.0,
        "time": 1789297200,
        "flags": 0,
        "windSpeedKn": 28.3,
        "windSpeedMs": 14.56,
        "windDirDeg": 321.9
      }
    },
    {
      "type": "Feature",
      "geometry": {
        "type": "Point",
        "coordinates": [
          8.63169,
          47.13443,
          12988.0
        ]
      },
      "properties": {
        "pressure": 150.099,
        "temp": 214.17,
        "dewpoint": 194.84,
        "gpheight": 12988.0,
        "time": 1789297200,
        "flags": 0,
        "windSpeedKn": 32.3,
        "windSpeedMs": 16.62,
        "windDirDeg": 319.7
      }
    },
    {
      "type": "Feature",
      "geometry": {
        "type": "Point",
        "coordinates": [
          8.63169,
          47.13443,
          13716.5
        ]
      },
      "properties": {
        "pressure": 133.744,
        "temp": 215.72,
        "dewpoint": 190.12,
        "gpheight": 13716.5,
        "time": 1789297200,
        "flags": 0,
        "windSpeedKn": 24.6,
        "windSpeedMs": 12.66,
        "windDirDeg": 323.1
      }
    },
    {
      "type": "Feature",
      "geometry": {
        "type": "Point",
        "coordinates": [
          8.63169,
          47.13443,
          14514.2
        ]
      },
      "properties": {
        "pressure": 117.857,
        "temp": 215.51,
        "dewpoint": 187.82,
        "gpheight": 14514.2,
        "time": 1789297200,
        "flags": 0,
        "windSpeedKn": 22.7,
        "windSpeedMs": 11.68,
        "windDirDeg": 326.7
      }
    },
    {
      "type": "Feature",
      "geometry": {
        "type": "Point",
        "coordinates": [
          8.63169,
          47.13443,
          15406.1
        ]
      },
      "properties": {
        "pressure": 102.345,
        "temp": 215.89,
        "dewpoint": 187.45,
        "gpheight": 15406.1,
        "time": 1789297200,
        "flags": 0,
        "windSpeedKn": 17.9,
        "windSpeedMs": 9.21,
        "windDirDeg": 336.2
      }
    },
    {
      "type": "Feature",
      "geometry": {
        "type": "Point",
        "coordinates": [
          8.63169,
          47.13443,
          16431.8
        ]
      },
      "properties": {
        "pressure": 87.018,
        "temp": 216.0,
        "dewpoint": 186.38,
        "gpheight": 16431.8,
        "time": 1789297200,
        "flags": 0,
        "windSpeedKn": 15.3,
        "windSpeedMs": 7.87,
        "windDirDeg": 357.5
      }
    },
    {
      "type": "Feature",
      "geometry": {
        "type": "Point",
        "coordinates": [
          8.63169,
          47.13443,
          17681.4
        ]
      },
      "properties": {
        "pressure": 71.458,
        "temp": 216.69,
        "dewpoint": 185.42,
        "gpheight": 17681.4,
        "time": 1789297200,
        "flags": 0,
        "windSpeedKn": 9.0,
        "windSpeedMs": 4.63,
        "windDirDeg": 358.4
      }
    },
    {
      "type": "Feature",
      "geometry": {
        "type": "Point",
        "coordinates": [
          8.63169,
          47.13443,
          19677.3
        ]
      },
      "properties": {
        "pressure": 52.224,
        "temp": 217.44,
        "dewpoint": 183.57,
        "gpheight": 19677.3,
        "time": 1789297200,
        "flags": 0,
        "windSpeedKn": 9.4,
        "windSpeedMs": 4.84,
        "windDirDeg": 10.7
      }
    }
  ],
  "metadata": {
    "request_id": "7a4cbcb2-8d38-43b3-8dfc-abf5a48f35a5",
    "version": "2026-09-13T11:29:51Z",
    "request_time_utc": "2026-09-13T11:29:51Z",
    "data_time_utc": "2026-09-13T11:00:00Z",
    "model_name": "ICON-D2",
    "model_run_utc": "2026-09-13T09:00:00Z",
    "forecast_hour": 2,
    "generated_at_utc": "2026-09-13T11:30:31Z"
  }
}